{
"type": "FeatureCollection",
"name": "bscoming",
"crs": { "type": "name", "properties": { "name": "urn:ogc:def:crs:OGC:1.3:CRS84" } },
"features": [
{ "type": "Feature", "properties": { "place_name": "Krampnitzer Tor ", "status": "NEUE STATION" }, "geometry": { "type": "Point", "coordinates": [ 13.04355693472814, 52.46113122832862 ] } },
{ "type": "Feature", "properties": { "place_name": "Bahnhof Marquardt", "status": "NEUE STATION" }, "geometry": { "type": "Point", "coordinates": [ 12.972404279598456, 52.45925126692982  ] } },
{ "type": "Feature", "properties": { "place_name": "Heinrich-Heine-Weg", "status": "NEUE STATION" }, "geometry": { "type": "Point", "coordinates": [ 13.046846959688382, 52.443558018726314 ] } },
{ "type": "Feature", "properties": { "place_name": "Am Kirchberg / Ringstraße", "status": "NEUE STATION" }, "geometry": { "type": "Point", "coordinates": [ 13.035161588479605, 52.44634946770999 ] } },
{ "type": "Feature", "properties": { "place_name": "P&R Eisbergstücke", "status": "NEUE STATION" }, "geometry": { "type": "Point", "coordinates": [ 13.021611367697002, 52.467976463942705 ] } },
{ "type": "Feature", "properties": { "place_name": "Am Upstall", "status": "NEUE STATION" }, "geometry": { "type": "Point", "coordinates": [ 13.014345758425252, 52.47447402346934 ] } },
{ "type": "Feature", "properties": { "place_name": "Florastraße", "status": "NEUE STATION" }, "geometry": { "type": "Point", "coordinates": [ 13.012414254448052, 52.41957713004011 ] } },
{ "type": "Feature", "properties": { "place_name": "Kirche Bornim", "status": "NEUE STATION" }, "geometry": { "type": "Point", "coordinates": [ 13.000179361542731, 52.4235424 ] } },
{ "type": "Feature", "properties": { "place_name": "Gutsstraße", "status": "NEUE STATION" }, "geometry": { "type": "Point", "coordinates": [ 13.007071184184456, 52.42431824096164 ] } },
{ "type": "Feature", "properties": { "place_name": "Institut für Agrartechnik", "status": "NEUE STATION" }, "geometry": { "type": "Point", "coordinates": [ 13.011593045848203, 52.43797822835821 ] } },
{ "type": "Feature", "properties": { "place_name": "P&R Lincolnsiedlung", "status": "NEUE STATION" }, "geometry": { "type": "Point", "coordinates": [ 13.012713838739652, 52.423051470478946 ] } },
{ "type": "Feature", "properties": { "place_name": "P&R Lincolnsiedlung", "status": "NEUE STATION" }, "geometry": { "type": "Point", "coordinates": [ 13.01319075917556, 52.46684614466846 ] } }
]
}
